NOAA 10                 
1 16969U 86073A   02087.93331176  .00000796  00000-0  34655-3 0  3021
2 16969  98.7035  78.2194 0011717 322.1341  37.9014 14.26817777807323
